ZACUBE-1 (TSHEPISOSAT)  
1 39417U 13066B   26064.12813661  .00006431  00000+0  50899-3 0  9993
2 39417  97.8184  25.9295 0041858 235.3351 124.3924 15.00268225665129
APRIZESAT 8             
1 39425U 13066K   26064.28189967  .00001975  00000+0  22072-3 0  9994
2 39425  97.8113  13.2866 0044592 267.9601  91.6508 14.87408811664226
CINEMA-3 (KHUSAT-2)     
1 39426U 13066L   26064.23375101  .00002043  00000+0  27189-3 0  9998
2 39426  97.8438 339.1496 0090072 188.2688 171.7044 14.77982735659095
TRITON-1                
1 39427U 13066M   26064.28003314  .00003422  00000+0  41732-3 0  9990
2 39427  97.8303 336.4724 0089824 212.2277 147.3428 14.81167895658705
DELFI-N3XT              
1 39428U 13066N   26063.32096528  .00012524  00000+0  11264-2 0  9993
2 39428  97.8352 343.8482 0075957 194.1494 165.7599 14.93572781658962
GOMX-1                  
1 39430U 13066Q   26064.26146503  .00002126  00000+0  32540-3 0  9997
2 39430  97.6566 271.2428 0130535  51.5982 309.6863 14.69076378654655
BRITE-PL1 (LEM)         
1 39431U 13066R   26064.29213850  .00000775  00000+0  16460-3 0  9992
2 39431  97.7825 184.1589 0189798 334.7659  24.4355 14.51206763648865
ICUBE-1                 
1 39432U 13066S   26063.49844300  .00027122  00000+0  11528-2 0  9998
2 39432  97.5638  48.1216 0016894 347.1134  12.9668 15.22883529668461
HUMSAT-D                
1 39433U 13066T   26064.00159654  .01243708  86814-3  20528-2 0  9990
2 39433  97.4823  76.7259 0007313 168.3159 191.8292 16.03274678670717
VELOX-PII               
1 39438U 13066Y   26064.27222566  .00006798  00000+0  65150-3 0  9992
2 39438  97.8645  15.6369 0052733 329.0277  30.7835 14.92418625662336
CUBEBUG-2 (LO-74)       
1 39440U 13066AA  26064.27408983  .00008426  00000+0  79081-3 0  9992
2 39440  97.8819  12.9402 0059233  13.7725 346.5093 14.92890152661485
NEE-02 KRYSAOR          
1 39441U 13066AB  26064.27098162  .00004034  00000+0  44759-3 0  9992
2 39441  97.8819   4.3116 0068067  51.2578 309.4694 14.86126542660764
FUNCUBE-1 (AO-73)       
1 39444U 13066AE  26063.39850331  .00015175  00000+0  97977-3 0  9999
2 39444  97.8175  32.8468 0036706 197.5791 162.4169 15.07790976663864
HINCUBE                 
1 39445U 13066AF  26063.34701260  .00013040  00000+0  87115-3 0  9993
2 39445  97.7865  30.4852 0033054 203.9188 156.0504 15.06678161663734
UWE-3                   
1 39446U 13066AG  26063.64687173  .00007547  00000+0  66020-3 0  9990
2 39446  97.8595  19.1594 0048758 309.8470  49.8465 14.96109228661947
SMDC ONE 2.4            
1 39469U 13072H   26064.14023124  .00017545  00000+0  73198-3 0  9991
2 39469 120.4896 311.0989 0138168 262.5211  96.0143 15.15596993102043
