[{"OBJECT_NAME":"ZACUBE-1 (TSHEPISOSAT)","OBJECT_ID":"2013-066B","EPOCH":"2026-03-05T03:04:31.003104","MEAN_MOTION":15.00268225,"ECCENTRICITY":0.0041858,"INCLINATION":97.8184,"RA_OF_ASC_NODE":25.9295,"ARG_OF_PERICENTER":235.3351,"MEAN_ANOMALY":124.3924,"EPHEMERIS_TYPE":0,"CLASSIFICATION_TYPE":"U","NORAD_CAT_ID":39417,"ELEMENT_SET_NO":999,"REV_AT_EPOCH":66512,"BSTAR":0.00050898604,"MEAN_MOTION_DOT":6.431e-5,"MEAN_MOTION_DDOT":0},{"OBJECT_NAME":"APRIZESAT 8","OBJECT_ID":"2013-066K","EPOCH":"2026-03-05T06:45:56.131488","MEAN_MOTION":14.87408811,"ECCENTRICITY":0.00445921,"INCLINATION":97.8113,"RA_OF_ASC_NODE":13.2866,"ARG_OF_PERICENTER":267.9601,"MEAN_ANOMALY":91.6508,"EPHEMERIS_TYPE":0,"CLASSIFICATION_TYPE":"U","NORAD_CAT_ID":39425,"ELEMENT_SET_NO":999,"REV_AT_EPOCH":66422,"BSTAR":0.00022071752,"MEAN_MOTION_DOT":1.975e-5,"MEAN_MOTION_DDOT":0},{"OBJECT_NAME":"CINEMA-3 (KHUSAT-2)","OBJECT_ID":"2013-066L","EPOCH":"2026-03-05T05:36:36.087264","MEAN_MOTION":14.77982735,"ECCENTRICITY":0.00900723,"INCLINATION":97.8438,"RA_OF_ASC_NODE":339.1496,"ARG_OF_PERICENTER":188.2688,"MEAN_ANOMALY":171.7044,"EPHEMERIS_TYPE":0,"CLASSIFICATION_TYPE":"U","NORAD_CAT_ID":39426,"ELEMENT_SET_NO":999,"REV_AT_EPOCH":65909,"BSTAR":0.00027189403,"MEAN_MOTION_DOT":2.043e-5,"MEAN_MOTION_DDOT":0},{"OBJECT_NAME":"TRITON-1","OBJECT_ID":"2013-066M","EPOCH":"2026-03-05T06:43:14.863296","MEAN_MOTION":14.81167895,"ECCENTRICITY":0.00898245,"INCLINATION":97.8303,"RA_OF_ASC_NODE":336.4724,"ARG_OF_PERICENTER":212.2277,"MEAN_ANOMALY":147.3428,"EPHEMERIS_TYPE":0,"CLASSIFICATION_TYPE":"U","NORAD_CAT_ID":39427,"ELEMENT_SET_NO":999,"REV_AT_EPOCH":65870,"BSTAR":0.00041732039,"MEAN_MOTION_DOT":3.422e-5,"MEAN_MOTION_DDOT":0},{"OBJECT_NAME":"DELFI-N3XT","OBJECT_ID":"2013-066N","EPOCH":"2026-03-04T07:42:11.400192","MEAN_MOTION":14.93572781,"ECCENTRICITY":0.0075957,"INCLINATION":97.8352,"RA_OF_ASC_NODE":343.8482,"ARG_OF_PERICENTER":194.1494,"MEAN_ANOMALY":165.7599,"EPHEMERIS_TYPE":0,"CLASSIFICATION_TYPE":"U","NORAD_CAT_ID":39428,"ELEMENT_SET_NO":999,"REV_AT_EPOCH":65896,"BSTAR":0.0011264073,"MEAN_MOTION_DOT":0.00012524,"MEAN_MOTION_DDOT":0},{"OBJECT_NAME":"GOMX-1","OBJECT_ID":"2013-066Q","EPOCH":"2026-03-05T06:16:30.578592","MEAN_MOTION":14.69076378,"ECCENTRICITY":0.01305357,"INCLINATION":97.6566,"RA_OF_ASC_NODE":271.2428,"ARG_OF_PERICENTER":51.5982,"MEAN_ANOMALY":309.6863,"EPHEMERIS_TYPE":0,"CLASSIFICATION_TYPE":"U","NORAD_CAT_ID":39430,"ELEMENT_SET_NO":999,"REV_AT_EPOCH":65465,"BSTAR":0.00032539836,"MEAN_MOTION_DOT":2.126e-5,"MEAN_MOTION_DDOT":0},{"OBJECT_NAME":"BRITE-PL1 (LEM)","OBJECT_ID":"2013-066R","EPOCH":"2026-03-05T07:00:40.766400","MEAN_MOTION":14.51206763,"ECCENTRICITY":0.01897989,"INCLINATION":97.7825,"RA_OF_ASC_NODE":184.1589,"ARG_OF_PERICENTER":334.7659,"MEAN_ANOMALY":24.4355,"EPHEMERIS_TYPE":0,"CLASSIFICATION_TYPE":"U","NORAD_CAT_ID":39431,"ELEMENT_SET_NO":999,"REV_AT_EPOCH":64886,"BSTAR":0.0001646041,"MEAN_MOTION_DOT":7.75e-6,"MEAN_MOTION_DDOT":0},{"OBJECT_NAME":"ICUBE-1","OBJECT_ID":"2013-066S","EPOCH":"2026-03-04T11:57:45.475200","MEAN_MOTION":15.22883529,"ECCENTRICITY":0.00168947,"INCLINATION":97.5638,"RA_OF_ASC_NODE":48.1216,"ARG_OF_PERICENTER":347.1134,"MEAN_ANOMALY":12.9668,"EPHEMERIS_TYPE":0,"CLASSIFICATION_TYPE":"U","NORAD_CAT_ID":39432,"ELEMENT_SET_NO":999,"REV_AT_EPOCH":66846,"BSTAR":0.0011528215,"MEAN_MOTION_DOT":0.00027122,"MEAN_MOTION_DDOT":0},{"OBJECT_NAME":"HUMSAT-D","OBJECT_ID":"2013-066T","EPOCH":"2026-03-05T00:02:17.941056","MEAN_MOTION":16.03274678,"ECCENTRICITY":0.00073131,"INCLINATION":97.4823,"RA_OF_ASC_NODE":76.7259,"ARG_OF_PERICENTER":168.3159,"MEAN_ANOMALY":191.8292,"EPHEMERIS_TYPE":0,"CLASSIFICATION_TYPE":"U","NORAD_CAT_ID":39433,"ELEMENT_SET_NO":999,"REV_AT_EPOCH":67071,"BSTAR":0.0020528274,"MEAN_MOTION_DOT":0.01243708,"MEAN_MOTION_DDOT":0.00086813532},{"OBJECT_NAME":"VELOX-PII","OBJECT_ID":"2013-066Y","EPOCH":"2026-03-05T06:32:00.297024","MEAN_MOTION":14.92418625,"ECCENTRICITY":0.00527332,"INCLINATION":97.8645,"RA_OF_ASC_NODE":15.6369,"ARG_OF_PERICENTER":329.0277,"MEAN_ANOMALY":30.7835,"EPHEMERIS_TYPE":0,"CLASSIFICATION_TYPE":"U","NORAD_CAT_ID":39438,"ELEMENT_SET_NO":999,"REV_AT_EPOCH":66233,"BSTAR":0.00065149729,"MEAN_MOTION_DOT":6.798e-5,"MEAN_MOTION_DDOT":0},{"OBJECT_NAME":"CUBEBUG-2 (LO-74)","OBJECT_ID":"2013-066AA","EPOCH":"2026-03-05T06:34:41.361312","MEAN_MOTION":14.92890152,"ECCENTRICITY":0.00592337,"INCLINATION":97.8819,"RA_OF_ASC_NODE":12.9402,"ARG_OF_PERICENTER":13.7725,"MEAN_ANOMALY":346.5093,"EPHEMERIS_TYPE":0,"CLASSIFICATION_TYPE":"U","NORAD_CAT_ID":39440,"ELEMENT_SET_NO":999,"REV_AT_EPOCH":66148,"BSTAR":0.00079081334,"MEAN_MOTION_DOT":8.426e-5,"MEAN_MOTION_DDOT":0},{"OBJECT_NAME":"NEE-02 KRYSAOR","OBJECT_ID":"2013-066AB","EPOCH":"2026-03-05T06:30:12.811968","MEAN_MOTION":14.86126542,"ECCENTRICITY":0.00680672,"INCLINATION":97.8819,"RA_OF_ASC_NODE":4.3116,"ARG_OF_PERICENTER":51.2578,"MEAN_ANOMALY":309.4694,"EPHEMERIS_TYPE":0,"CLASSIFICATION_TYPE":"U","NORAD_CAT_ID":39441,"ELEMENT_SET_NO":999,"REV_AT_EPOCH":66076,"BSTAR":0.00044759385,"MEAN_MOTION_DOT":4.034e-5,"MEAN_MOTION_DDOT":0},{"OBJECT_NAME":"FUNCUBE-1 (AO-73)","OBJECT_ID":"2013-066AE","EPOCH":"2026-03-04T09:33:50.685984","MEAN_MOTION":15.07790976,"ECCENTRICITY":0.00367061,"INCLINATION":97.8175,"RA_OF_ASC_NODE":32.8468,"ARG_OF_PERICENTER":197.5791,"MEAN_ANOMALY":162.4169,"EPHEMERIS_TYPE":0,"CLASSIFICATION_TYPE":"U","NORAD_CAT_ID":39444,"ELEMENT_SET_NO":999,"REV_AT_EPOCH":66386,"BSTAR":0.00097976762,"MEAN_MOTION_DOT":0.00015175,"MEAN_MOTION_DDOT":0},{"OBJECT_NAME":"HINCUBE","OBJECT_ID":"2013-066AF","EPOCH":"2026-03-04T08:19:41.888640","MEAN_MOTION":15.06678161,"ECCENTRICITY":0.00330544,"INCLINATION":97.7865,"RA_OF_ASC_NODE":30.4852,"ARG_OF_PERICENTER":203.9188,"MEAN_ANOMALY":156.0504,"EPHEMERIS_TYPE":0,"CLASSIFICATION_TYPE":"U","NORAD_CAT_ID":39445,"ELEMENT_SET_NO":999,"REV_AT_EPOCH":66373,"BSTAR":0.00087115027,"MEAN_MOTION_DOT":0.0001304,"MEAN_MOTION_DDOT":0},{"OBJECT_NAME":"UWE-3","OBJECT_ID":"2013-066AG","EPOCH":"2026-03-04T15:31:29.717472","MEAN_MOTION":14.96109228,"ECCENTRICITY":0.00487583,"INCLINATION":97.8595,"RA_OF_ASC_NODE":19.1594,"ARG_OF_PERICENTER":309.847,"MEAN_ANOMALY":49.8465,"EPHEMERIS_TYPE":0,"CLASSIFICATION_TYPE":"U","NORAD_CAT_ID":39446,"ELEMENT_SET_NO":999,"REV_AT_EPOCH":66194,"BSTAR":0.00066020229,"MEAN_MOTION_DOT":7.547e-5,"MEAN_MOTION_DDOT":0},{"OBJECT_NAME":"SMDC ONE 2.4","OBJECT_ID":"2013-072H","EPOCH":"2026-03-05T03:21:55.979136","MEAN_MOTION":15.15596993,"ECCENTRICITY":0.01381685,"INCLINATION":120.4896,"RA_OF_ASC_NODE":311.0989,"ARG_OF_PERICENTER":262.5211,"MEAN_ANOMALY":96.0143,"EPHEMERIS_TYPE":0,"CLASSIFICATION_TYPE":"U","NORAD_CAT_ID":39469,"ELEMENT_SET_NO":999,"REV_AT_EPOCH":10204,"BSTAR":0.00073198305,"MEAN_MOTION_DOT":0.00017545,"MEAN_MOTION_DDOT":0}]
